     2              NAVIGATION DATA                         RINEX VERSION / TYPE
CCRINEXN V1.6.0 UX  CDDIS               27-NOV-23 23:31     PGM / RUN BY / DATE 
IGS BROADCAST EPHEMERIS FILE                                COMMENT             
    0.3166D-07  0.7451D-08 -0.1192D-06  0.1192D-06          ION ALPHA           
    0.1475D+06 -0.1475D+06  0.0000D+00 -0.6554D+05          ION BETA            
   -0.186264514923D-08-0.710542735760D-14   147456     2290 DELTA-UTC: A0,A1,T,W
    18                                                      LEAP SECONDS        
                                                            END OF HEADER       
 7 23 11 26 14  0  0.0 0.343704596162D-05-0.977706804406D-11 0.000000000000D+00
    0.350000000000D+02-0.162812500000D+02 0.507628287613D-08-0.637032323845D+00
   -0.778585672379D-06 0.176649398636D-01 0.838562846184D-05 0.515369310570D+04
    0.504000000000D+05-0.614672899246D-07 0.213945782101D+01 0.264495611191D-06
    0.950084125400D+00 0.212781250000D+03-0.216546857468D+01-0.839963559282D-08
   -0.780032491484D-09 0.100000000000D+01 0.229000000000D+04 0.000000000000D+00
    0.200000000000D+01 0.000000000000D+00-0.111758708954D-07 0.350000000000D+02
    0.432180000000D+05 0.400000000000D+01 0.000000000000D+00 0.000000000000D+00
 8 23 11 26 14  0  0.0-0.153975561261D-03-0.181898940355D-11 0.000000000000D+00
    0.520000000000D+02 0.861875000000D+02 0.483698719422D-08 0.217933395862D+01
    0.439584255219D-05 0.895564281382D-02 0.348314642906D-06 0.515378705978D+04
    0.504000000000D+05-0.180676579475D-06-0.208155757005D+01 0.186264514923D-07
    0.955855252374D+00 0.372562500000D+03 0.280071872929D+00-0.858642908781D-08
    0.166435504135D-09 0.100000000000D+01 0.229000000000D+04 0.000000000000D+00
    0.200000000000D+01 0.000000000000D+00 0.512227416039D-08 0.520000000000D+02
    0.432180000000D+05 0.400000000000D+01 0.000000000000D+00 0.000000000000D+00
 9 23 11 26 14  0  0.0 0.857701525092D-05 0.114823706099D-10 0.000000000000D+00
    0.390000000000D+02 0.197500000000D+02 0.514985736937D-08 0.270085787702D+01
    0.112131237984D-05 0.296446529683D-02 0.562332570553D-05 0.515375784111D+04
    0.504000000000D+05 0.117346644402D-06 0.106696167734D+01-0.111758708954D-07
    0.956827765203D+00 0.268125000000D+03 0.198723397975D+01-0.820391315448D-08
    0.397159400426D-09 0.100000000000D+01 0.229000000000D+04 0.000000000000D+00
    0.200000000000D+01 0.000000000000D+00 0.139698386192D-08 0.390000000000D+02
    0.432180000000D+05 0.400000000000D+01 0.000000000000D+00 0.000000000000D+00
10 23 11 26 14  0  0.0-0.629089772701D-04-0.147792889038D-11 0.000000000000D+00
    0.105000000000D+03-0.526250000000D+02 0.371622622431D-08-0.203762359026D+01
   -0.295415520668D-05 0.912636960857D-02 0.119730830193D-04 0.515369073486D+04
    0.504000000000D+05 0.242143869400D-07 0.428233952863D-01-0.104308128357D-06
    0.981775748386D+00 0.156687500000D+03-0.242285588542D+01-0.734530596148D-08
    0.616097091488D-09 0.100000000000D+01 0.229000000000D+04 0.000000000000D+00
    0.200000000000D+01 0.000000000000D+00 0.232830643654D-08 0.105000000000D+03
    0.432180000000D+05 0.400000000000D+01 0.000000000000D+00 0.000000000000D+00
11 23 11 26 14  0  0.0-0.476345419884D-03-0.158024704433D-10 0.000000000000D+00
    0.238000000000D+03-0.138062500000D+03 0.430875090534D-08 0.147045394041D+01
   -0.727921724320D-05 0.128972553648D-02 0.478513538837D-05 0.515363083649D+04
    0.504000000000D+05-0.186264514923D-07-0.954452932750D+00-0.447034835815D-07
    0.965986732493D+00 0.287312500000D+03-0.256132966310D+01-0.811498087867D-08
   -0.253581991279D-09 0.100000000000D+01 0.229000000000D+04 0.000000000000D+00
    0.200000000000D+01 0.000000000000D+00-0.838190317154D-08 0.750000000000D+03
    0.432180000000D+05 0.400000000000D+01 0.000000000000D+00 0.000000000000D+00
12 23 11 26 14  0  0.0-0.451123807579D-03-0.409272615798D-11 0.000000000000D+00
    0.350000000000D+02 0.123500000000D+03 0.415803034151D-08-0.130986605375D+01
    0.643916428089D-05 0.874841795303D-02 0.100173056126D-04 0.515376298332D+04
    0.504000000000D+05 0.931322574616D-08-0.302892179720D+01 0.225380063057D-06
    0.964329860735D+00 0.189687500000D+03 0.139721153652D+01-0.785461289044D-08
   -0.932181686252D-10 0.100000000000D+01 0.229000000000D+04 0.000000000000D+00
    0.200000000000D+01 0.000000000000D+00-0.125728547573D-07 0.350000000000D+02
    0.494030000000D+05 0.400000000000D+01 0.000000000000D+00 0.000000000000D+00
13 23 11 26 14  0  0.0 0.599394552410D-03 0.397903932026D-11 0.000000000000D+00
    0.300000000000D+02 0.144062500000D+02 0.488984653888D-08 0.186625922875D+01
    0.691041350365D-06 0.770443538204D-02 0.518560409546D-05 0.515365129852D+04
    0.504000000000D+05-0.219792127609D-06 0.123014406238D+01-0.121071934700D-06
    0.970072228202D+00 0.284531250000D+03 0.953602987586D+00-0.806676458455D-08
    0.281083136812D-09 0.100000000000D+01 0.229000000000D+04 0.000000000000D+00
    0.200000000000D+01 0.000000000000D+00-0.111758708954D-07 0.300000000000D+02
    0.451560000000D+05 0.400000000000D+01 0.000000000000D+00 0.000000000000D+00
14 23 11 26 14  0  0.0 0.254143029451D-03 0.106865627458D-10 0.000000000000D+00
    0.151000000000D+03 0.130906250000D+03 0.437161066656D-08-0.135290962845D+01
    0.677444040775D-05 0.371503084898D-02 0.111889094114D-04 0.515368872261D+04
    0.504000000000D+05-0.242143869400D-07-0.307045408682D+01-0.130385160446D-06
    0.947666378246D+00 0.159500000000D+03-0.295438493609D+01-0.787032783075D-08
   -0.860750139413D-10 0.100000000000D+01 0.229000000000D+04 0.000000000000D+00
    0.200000000000D+01 0.000000000000D+00-0.791624188423D-08 0.919000000000D+03
    0.432180000000D+05 0.400000000000D+01 0.000000000000D+00 0.000000000000D+00
15 23 11 26 14  0  0.0 0.100963283330D-03 0.375166564481D-11 0.000000000000D+00
    0.540000000000D+02 0.227187500000D+02 0.571952395542D-08 0.118020711529D+01
    0.113993883133D-05 0.154537025373D-01 0.655464828014D-05 0.515356508255D+04
    0.504000000000D+05-0.378116965294D-06 0.943771271084D+00-0.372529029846D-07
    0.933509864822D+00 0.243625000000D+03 0.127547395860D+01-0.870536261329D-08
    0.487163149444D-09 0.100000000000D+01 0.229000000000D+04 0.000000000000D+00
    0.200000000000D+01 0.000000000000D+00-0.102445483208D-07 0.540000000000D+02
    0.497280000000D+05 0.400000000000D+01 0.000000000000D+00 0.000000000000D+00
16 23 11 26 14  0  0.0-0.415208283812D-03 0.682121026330D-11 0.000000000000D+00
    0.370000000000D+02 0.147156250000D+03 0.399088052191D-08-0.307116818687D+01
    0.741146504879D-05 0.136953259353D-01 0.103134661913D-04 0.515370447540D+04
    0.504000000000D+05 0.391155481338D-07-0.301086527437D+01-0.150874257088D-06
    0.963916481048D+00 0.181156250000D+03 0.803994393274D+00-0.759567353315D-08
    0.000000000000D+00 0.100000000000D+01 0.229000000000D+04 0.000000000000D+00
    0.200000000000D+01 0.000000000000D+00-0.102445483208D-07 0.370000000000D+02
    0.641260000000D+05 0.400000000000D+01 0.000000000000D+00 0.000000000000D+00
18 23 11 26 14  0  0.0-0.489984638989D-03-0.105728759081D-10 0.000000000000D+00
    0.210000000000D+03-0.131468750000D+03 0.411588572888D-08 0.147365329397D+00
   -0.684522092342D-05 0.383607484400D-02 0.497139990330D-05 0.515364695358D+04
    0.504000000000D+05 0.428408384323D-07-0.984938616773D+00 0.298023223877D-07
    0.974348393339D+00 0.290000000000D+03-0.303176445330D+01-0.808605110220D-08
   -0.226438003480D-09 0.100000000000D+01 0.229000000000D+04 0.000000000000D+00
    0.200000000000D+01 0.000000000000D+00-0.838190317154D-08 0.210000000000D+03
    0.432180000000D+05 0.400000000000D+01 0.000000000000D+00 0.000000000000D+00
19 23 11 26 14  0  0.0 0.404226128012D-03 0.522959453519D-11 0.000000000000D+00
    0.760000000000D+02 0.553750000000D+02 0.444911389488D-08-0.198109679410D+01
    0.304169952869D-05 0.936245231423D-02 0.184401869774D-06 0.515366623115D+04
    0.504000000000D+05-0.249594449997D-06-0.194518907778D+01 0.763684511185D-07
    0.970589229303D+00 0.382937500000D+03 0.245153988489D+01-0.842427947648D-08
    0.196079596074D-09 0.100000000000D+01 0.229000000000D+04 0.000000000000D+00
    0.200000000000D+01 0.000000000000D+00-0.153668224812D-07 0.760000000000D+02
    0.432180000000D+05 0.400000000000D+01 0.000000000000D+00 0.000000000000D+00
20 23 11 26 14  0  0.0 0.399676151574D-03-0.193267624127D-11 0.000000000000D+00
    0.110000000000D+03-0.829375000000D+02 0.445232831449D-08 0.864578215302D+00
   -0.442937016487D-05 0.408509443514D-02 0.113677233458D-04 0.515366306686D+04
    0.504000000000D+05-0.149011611938D-07-0.129082209341D+00 0.838190317154D-07
    0.951596772454D+00 0.158781250000D+03-0.275534505525D+01-0.784175521201D-08
    0.315370279295D-09 0.100000000000D+01 0.229000000000D+04 0.000000000000D+00
    0.200000000000D+01 0.000000000000D+00-0.838190317154D-08 0.110000000000D+03
    0.432180000000D+05 0.400000000000D+01 0.000000000000D+00 0.000000000000D+00
22 23 11 26 14  0  0.0 0.768555328250D-04-0.693489710102D-11 0.000000000000D+00
    0.740000000000D+02 0.148468750000D+03 0.391266297812D-08 0.279126230248D+01
    0.775419175625D-05 0.149555092212D-01 0.111088156700D-04 0.515374056435D+04
    0.504000000000D+05 0.158324837685D-06-0.300756668376D+01 0.875443220139D-07
    0.963198483780D+00 0.161906250000D+03-0.116166666794D+01-0.751317009655D-08
   -0.103932900651D-09 0.100000000000D+01 0.229000000000D+04 0.000000000000D+00
    0.200000000000D+01 0.000000000000D+00-0.111758708954D-07 0.740000000000D+02
    0.432180000000D+05 0.400000000000D+01 0.000000000000D+00 0.000000000000D+00
